[{"OBJECT_NAME":"QIANFAN-35","OBJECT_ID":"2024-185S","EPOCH":"2026-03-02T23:57:49.597344","MEAN_MOTION":14.28112448,"ECCENTRICITY":0.00077504,"INCLINATION":88.9742,"RA_OF_ASC_NODE":67.4403,"ARG_OF_PERICENTER":39.0756,"MEAN_ANOMALY":321.0997,"EPHEMERIS_TYPE":0,"CLASSIFICATION_TYPE":"U","NORAD_CAT_ID":61568,"ELEMENT_SET_NO":999,"REV_AT_EPOCH":8163,"BSTAR":0.00037103265,"MEAN_MOTION_DOT":9.37e-6,"MEAN_MOTION_DDOT":0},{"OBJECT_NAME":"QIANFAN-36","OBJECT_ID":"2024-185T","EPOCH":"2026-03-02T23:24:30.502656","MEAN_MOTION":13.55613101,"ECCENTRICITY":0.00067757,"INCLINATION":88.9715,"RA_OF_ASC_NODE":72.6714,"ARG_OF_PERICENTER":152.9508,"MEAN_ANOMALY":207.2001,"EPHEMERIS_TYPE":0,"CLASSIFICATION_TYPE":"U","NORAD_CAT_ID":61569,"ELEMENT_SET_NO":999,"REV_AT_EPOCH":7879,"BSTAR":0.00020774867,"MEAN_MOTION_DOT":1.57e-6,"MEAN_MOTION_DDOT":0},{"OBJECT_NAME":"QIANFAN-37","OBJECT_ID":"2024-232B","EPOCH":"2026-03-02T21:46:47.984448","MEAN_MOTION":13.51004925,"ECCENTRICITY":0.00016233,"INCLINATION":89.0046,"RA_OF_ASC_NODE":33.2304,"ARG_OF_PERICENTER":96.4047,"MEAN_ANOMALY":263.7289,"EPHEMERIS_TYPE":0,"CLASSIFICATION_TYPE":"U","NORAD_CAT_ID":62238,"ELEMENT_SET_NO":999,"REV_AT_EPOCH":10999,"BSTAR":0.00010999546,"MEAN_MOTION_DOT":8.3e-7,"MEAN_MOTION_DDOT":0},{"OBJECT_NAME":"QIANFAN-38","OBJECT_ID":"2024-232C","EPOCH":"2026-03-02T22:22:16.688640","MEAN_MOTION":13.510035,"ECCENTRICITY":0.00136642,"INCLINATION":89.0052,"RA_OF_ASC_NODE":33.1492,"ARG_OF_PERICENTER":331.4928,"MEAN_ANOMALY":28.5475,"EPHEMERIS_TYPE":0,"CLASSIFICATION_TYPE":"U","NORAD_CAT_ID":62239,"ELEMENT_SET_NO":999,"REV_AT_EPOCH":11005,"BSTAR":8.3417613e-5,"MEAN_MOTION_DOT":6.6e-7,"MEAN_MOTION_DDOT":0},{"OBJECT_NAME":"QIANFAN-39","OBJECT_ID":"2024-232D","EPOCH":"2026-03-02T22:37:42.972672","MEAN_MOTION":14.25433603,"ECCENTRICITY":0.00162104,"INCLINATION":89.0051,"RA_OF_ASC_NODE":28.1324,"ARG_OF_PERICENTER":167.5458,"MEAN_ANOMALY":192.6139,"EPHEMERIS_TYPE":0,"CLASSIFICATION_TYPE":"U","NORAD_CAT_ID":62240,"ELEMENT_SET_NO":999,"REV_AT_EPOCH":11281,"BSTAR":0.00016771762,"MEAN_MOTION_DOT":4.11e-6,"MEAN_MOTION_DDOT":0},{"OBJECT_NAME":"QIANFAN-40","OBJECT_ID":"2024-232E","EPOCH":"2026-03-02T23:09:40.460832","MEAN_MOTION":13.51002682,"ECCENTRICITY":0.00129947,"INCLINATION":89.0081,"RA_OF_ASC_NODE":32.7529,"ARG_OF_PERICENTER":340.4129,"MEAN_ANOMALY":19.6521,"EPHEMERIS_TYPE":0,"CLASSIFICATION_TYPE":"U","NORAD_CAT_ID":62241,"ELEMENT_SET_NO":999,"REV_AT_EPOCH":11042,"BSTAR":7.8920713e-5,"MEAN_MOTION_DOT":6.3e-7,"MEAN_MOTION_DDOT":0},{"OBJECT_NAME":"QIANFAN-41","OBJECT_ID":"2024-232F","EPOCH":"2026-03-02T21:34:56.303328","MEAN_MOTION":13.51004399,"ECCENTRICITY":0.00129583,"INCLINATION":89.005,"RA_OF_ASC_NODE":33.1027,"ARG_OF_PERICENTER":327.7576,"MEAN_ANOMALY":32.2782,"EPHEMERIS_TYPE":0,"CLASSIFICATION_TYPE":"U","NORAD_CAT_ID":62242,"ELEMENT_SET_NO":999,"REV_AT_EPOCH":11007,"BSTAR":0.00012060656,"MEAN_MOTION_DOT":9.0e-7,"MEAN_MOTION_DDOT":0},{"OBJECT_NAME":"QIANFAN-42","OBJECT_ID":"2024-232G","EPOCH":"2026-03-02T22:07:11.247744","MEAN_MOTION":14.24527659,"ECCENTRICITY":0.00148256,"INCLINATION":89.0049,"RA_OF_ASC_NODE":28.1941,"ARG_OF_PERICENTER":173.1205,"MEAN_ANOMALY":187.0194,"EPHEMERIS_TYPE":0,"CLASSIFICATION_TYPE":"U","NORAD_CAT_ID":62243,"ELEMENT_SET_NO":999,"REV_AT_EPOCH":11278,"BSTAR":0.00016535745,"MEAN_MOTION_DOT":3.98e-6,"MEAN_MOTION_DDOT":0},{"OBJECT_NAME":"QIANFAN-43","OBJECT_ID":"2024-232H","EPOCH":"2026-03-02T23:15:36.280224","MEAN_MOTION":13.51004393,"ECCENTRICITY":0.00146404,"INCLINATION":89.0055,"RA_OF_ASC_NODE":33.1646,"ARG_OF_PERICENTER":332.2707,"MEAN_ANOMALY":27.7662,"EPHEMERIS_TYPE":0,"CLASSIFICATION_TYPE":"U","NORAD_CAT_ID":62244,"ELEMENT_SET_NO":999,"REV_AT_EPOCH":7869,"BSTAR":7.2641053e-5,"MEAN_MOTION_DOT":5.9e-7,"MEAN_MOTION_DDOT":0},{"OBJECT_NAME":"QIANFAN-44","OBJECT_ID":"2024-232J","EPOCH":"2026-03-02T22:57:50.173344","MEAN_MOTION":13.51002358,"ECCENTRICITY":0.00127775,"INCLINATION":89.0054,"RA_OF_ASC_NODE":32.9752,"ARG_OF_PERICENTER":330.1963,"MEAN_ANOMALY":29.8459,"EPHEMERIS_TYPE":0,"CLASSIFICATION_TYPE":"U","NORAD_CAT_ID":62245,"ELEMENT_SET_NO":999,"REV_AT_EPOCH":11016,"BSTAR":8.4798177e-5,"MEAN_MOTION_DOT":6.7e-7,"MEAN_MOTION_DDOT":0},{"OBJECT_NAME":"QIANFAN-45","OBJECT_ID":"2024-232K","EPOCH":"2026-03-02T22:10:28.196544","MEAN_MOTION":13.51000028,"ECCENTRICITY":0.00134196,"INCLINATION":89.0057,"RA_OF_ASC_NODE":33.1278,"ARG_OF_PERICENTER":329.4873,"MEAN_ANOMALY":30.5496,"EPHEMERIS_TYPE":0,"CLASSIFICATION_TYPE":"U","NORAD_CAT_ID":62246,"ELEMENT_SET_NO":999,"REV_AT_EPOCH":11008,"BSTAR":7.0448371e-5,"MEAN_MOTION_DOT":5.7e-7,"MEAN_MOTION_DDOT":0},{"OBJECT_NAME":"QIANFAN-46","OBJECT_ID":"2024-232L","EPOCH":"2026-03-02T22:45:58.079232","MEAN_MOTION":13.51002906,"ECCENTRICITY":0.00136504,"INCLINATION":89.0053,"RA_OF_ASC_NODE":33.1911,"ARG_OF_PERICENTER":335.2381,"MEAN_ANOMALY":24.8114,"EPHEMERIS_TYPE":0,"CLASSIFICATION_TYPE":"U","NORAD_CAT_ID":62247,"ELEMENT_SET_NO":999,"REV_AT_EPOCH":11004,"BSTAR":8.8111704e-5,"MEAN_MOTION_DOT":6.9e-7,"MEAN_MOTION_DDOT":0},{"OBJECT_NAME":"QIANFAN-47","OBJECT_ID":"2024-232M","EPOCH":"2026-03-02T22:51:53.320608","MEAN_MOTION":13.51002841,"ECCENTRICITY":0.00140584,"INCLINATION":89.0049,"RA_OF_ASC_NODE":33.1204,"ARG_OF_PERICENTER":334.0768,"MEAN_ANOMALY":25.9678,"EPHEMERIS_TYPE":0,"CLASSIFICATION_TYPE":"U","NORAD_CAT_ID":62248,"ELEMENT_SET_NO":999,"REV_AT_EPOCH":11007,"BSTAR":8.3760934e-5,"MEAN_MOTION_DOT":6.6e-7,"MEAN_MOTION_DDOT":0},{"OBJECT_NAME":"QIANFAN-48","OBJECT_ID":"2024-232N","EPOCH":"2026-03-02T21:58:34.573152","MEAN_MOTION":13.51003074,"ECCENTRICITY":0.00163873,"INCLINATION":89.0052,"RA_OF_ASC_NODE":33.1292,"ARG_OF_PERICENTER":335.8288,"MEAN_ANOMALY":24.2093,"EPHEMERIS_TYPE":0,"CLASSIFICATION_TYPE":"U","NORAD_CAT_ID":62249,"ELEMENT_SET_NO":999,"REV_AT_EPOCH":11007,"BSTAR":9.342505e-5,"MEAN_MOTION_DOT":7.2e-7,"MEAN_MOTION_DDOT":0},{"OBJECT_NAME":"QIANFAN-49","OBJECT_ID":"2024-232P","EPOCH":"2026-03-02T21:40:48.183744","MEAN_MOTION":13.51002139,"ECCENTRICITY":0.00133055,"INCLINATION":89.0052,"RA_OF_ASC_NODE":33.1423,"ARG_OF_PERICENTER":331.6371,"MEAN_ANOMALY":28.4055,"EPHEMERIS_TYPE":0,"CLASSIFICATION_TYPE":"U","NORAD_CAT_ID":62250,"ELEMENT_SET_NO":999,"REV_AT_EPOCH":7866,"BSTAR":9.0555244e-5,"MEAN_MOTION_DOT":7.0e-7,"MEAN_MOTION_DDOT":0},{"OBJECT_NAME":"QIANFAN-50","OBJECT_ID":"2024-232Q","EPOCH":"2026-03-02T22:16:20.324928","MEAN_MOTION":13.51003109,"ECCENTRICITY":0.00149899,"INCLINATION":89.0057,"RA_OF_ASC_NODE":33.1523,"ARG_OF_PERICENTER":332.0962,"MEAN_ANOMALY":27.9384,"EPHEMERIS_TYPE":0,"CLASSIFICATION_TYPE":"U","NORAD_CAT_ID":62251,"ELEMENT_SET_NO":999,"REV_AT_EPOCH":7869,"BSTAR":7.985152e-5,"MEAN_MOTION_DOT":6.3e-7,"MEAN_MOTION_DDOT":0},{"OBJECT_NAME":"QIANFAN-51","OBJECT_ID":"2024-232R","EPOCH":"2026-03-02T21:52:41.193696","MEAN_MOTION":13.5100393,"ECCENTRICITY":0.00126335,"INCLINATION":89.0051,"RA_OF_ASC_NODE":33.1429,"ARG_OF_PERICENTER":337.4321,"MEAN_ANOMALY":22.6273,"EPHEMERIS_TYPE":0,"CLASSIFICATION_TYPE":"U","NORAD_CAT_ID":62252,"ELEMENT_SET_NO":999,"REV_AT_EPOCH":7868,"BSTAR":0.00010072397,"MEAN_MOTION_DOT":7.7e-7,"MEAN_MOTION_DDOT":0}]
