QIANFAN-35              
1 61568U 24185S   26061.99849071  .00000937  00000+0  37103-3 0  9993
2 61568  88.9742  67.4403 0007750  39.0756 321.0997 14.28112448 81633
QIANFAN-36              
1 61569U 24185T   26061.97535304  .00000157  00000+0  20775-3 0  9994
2 61569  88.9715  72.6714 0006775 152.9508 207.2001 13.55613101 78798
QIANFAN-37              
1 62238U 24232B   26061.90749982  .00000083  00000+0  11000-3 0  9992
2 62238  89.0046  33.2304 0001623  96.4047 263.7289 13.51004925109992
QIANFAN-38              
1 62239U 24232C   26061.93213760  .00000066  00000+0  83418-4 0  9990
2 62239  89.0052  33.1492 0013664 331.4928  28.5475 13.51003500110056
QIANFAN-39              
1 62240U 24232D   26061.94285848  .00000411  00000+0  16772-3 0  9991
2 62240  89.0051  28.1324 0016210 167.5458 192.6139 14.25433603112810
QIANFAN-40              
1 62241U 24232E   26061.96505163  .00000063  00000+0  78921-4 0  9997
2 62241  89.0081  32.7529 0012994 340.4129  19.6521 13.51002682110429
QIANFAN-41              
1 62242U 24232F   26061.89926277  .00000090  00000+0  12061-3 0  9995
2 62242  89.0050  33.1027 0012958 327.7576  32.2782 13.51004399110076
QIANFAN-42              
1 62243U 24232G   26061.92165796  .00000398  00000+0  16536-3 0  9993
2 62243  89.0049  28.1941 0014825 173.1205 187.0194 14.24527659112787
QIANFAN-43              
1 62244U 24232H   26061.96916991  .00000059  00000+0  72641-4 0  9993
2 62244  89.0055  33.1646 0014640 332.2707  27.7662 13.51004393 78698
QIANFAN-44              
1 62245U 24232J   26061.95683071  .00000067  00000+0  84798-4 0  9998
2 62245  89.0054  32.9752 0012777 330.1963  29.8459 13.51002358110168
QIANFAN-45              
1 62246U 24232K   26061.92393746  .00000057  00000+0  70448-4 0  9999
2 62246  89.0057  33.1278 0013419 329.4873  30.5496 13.51000028110086
QIANFAN-46              
1 62247U 24232L   26061.94858888  .00000069  00000+0  88112-4 0  9995
2 62247  89.0053  33.1911 0013650 335.2381  24.8114 13.51002906110049
QIANFAN-47              
1 62248U 24232M   26061.95270047  .00000066  00000+0  83761-4 0  9994
2 62248  89.0049  33.1204 0014058 334.0768  25.9678 13.51002841110077
QIANFAN-48              
1 62249U 24232N   26061.91567793  .00000072  00000+0  93425-4 0  9993
2 62249  89.0052  33.1292 0016387 335.8288  24.2093 13.51003074110074
QIANFAN-49              
1 62250U 24232P   26061.90333546  .00000070  00000+0  90555-4 0  9990
2 62250  89.0052  33.1423 0013305 331.6371  28.4055 13.51002139 78669
QIANFAN-50              
1 62251U 24232Q   26061.92801302  .00000063  00000+0  79852-4 0  9992
2 62251  89.0057  33.1523 0014989 332.0962  27.9384 13.51003109 78696
QIANFAN-51              
1 62252U 24232R   26061.91158789  .00000077  00000+0  10072-3 0  9999
2 62252  89.0051  33.1429 0012633 337.4321  22.6273 13.51003930 78688
